HST                     
1 20580U 90037B   26068.15977042  .00009063  00000+0  30023-3 0  9999
2 20580  28.4717  43.6133 0001837 120.9992 239.0785 15.29473555773239
STARLINK-34349          
1 64215U 25117N   26068.35462550  .00027383  00000+0  93325-3 0  9993
2 64215  53.1600  41.2132 0001390 100.6310 259.4847 15.30200792 44479
